OBJECT_NAME,OBJECT_ID,EPOCH,MEAN_MOTION,ECCENTRICITY,INCLINATION,RA_OF_ASC_NODE,ARG_OF_PERICENTER,MEAN_ANOMALY,EPHEMERIS_TYPE,CLASSIFICATION_TYPE,NORAD_CAT_ID,ELEMENT_SET_NO,REV_AT_EPOCH,BSTAR,MEAN_MOTION_DOT,MEAN_MOTION_DDOT
IONOSFERA-M 2,2024-199B,2026-07-05T13:59:38.914656,14.22761205,.00003421,98.7148,59.4696,69.5972,290.5243,0,U,61736,999,13344,.50658546E-4,.7E-6,0
PRSC-EO1,2025-012A,2026-07-05T15:40:05.414880,15.17698729,.00060771,97.4214,258.7516,178.4112,181.7142,0,U,62725,999,8099,.39247058E-3,.7851E-4,0
BIOMASS,2025-090A,2026-07-05T10:41:23.729856,14.67535846,.00014531,98.0745,13.4927,87.9282,272.2089,0,U,63772,999,6336,.26915968E-3,.1478E-4,0
GOSAT-GW (IBUKI GW),2025-141A,2026-07-05T14:22:45.931008,14.67552418,.00014158,98.0567,123.6171,83.6241,276.5125,0,U,64694,999,5454,.2242227E-3,.1224E-4,0
IONOSFERA-M 3,2025-155A,2026-07-05T14:48:51.557760,14.21489605,.00019622,98.6034,148.0591,126.9262,233.2095,0,U,64876,999,4902,.43825288E-4,.53E-6,0
IONOSFERA-M 4,2025-155B,2026-07-05T15:38:59.165088,14.21492013,.00016349,98.6040,148.0102,108.6760,251.4595,0,U,64877,999,4902,.45699314E-4,.57E-6,0
MICROCARB,2025-156A,2026-07-05T03:45:10.826784,14.72877977,.0016836,98.0076,262.9993,203.0357,157.0098,0,U,64899,999,5061,.12904745E-3,.778E-5,0
CO3D 3,2025-156B,2026-07-05T08:30:48.258144,15.20202387,.00018457,97.4326,264.7864,104.7436,255.4004,0,U,64900,999,5229,.34141558E-3,.7331E-4,0
CO3D 4,2025-156C,2026-07-05T08:31:01.164576,15.20190723,.00009101,97.4332,264.7865,171.6356,188.4895,0,U,64901,999,5229,.10031098E-3,.2104E-4,0
CO3D 2,2025-156D,2026-07-05T09:17:47.142816,15.20215305,.00014325,97.4326,264.7177,92.8171,267.3228,0,U,64902,999,5229,.31755394E-3,.6816E-4,0
CO3D 1,2025-156E,2026-07-05T09:18:00.569376,15.20194743,.00013128,97.4331,264.7187,100.0164,260.1219,0,U,64903,999,5229,.31630853E-3,.6785E-4,0
PRSC-S1,2025-164A,2026-07-05T11:52:35.675040,15.06586363,.00052202,41.1290,184.6919,127.9724,232.1562,0,U,65055,999,5119,.27448065E-3,.3961E-4,0
SENTINEL-6B,2025-264A,2026-07-05T02:54:46.615104,12.80930110,.0007904,66.0414,97.9303,268.8997,91.1113,0,U,66514,999,2946,.12398E-3,-.32E-6,0
CAS500-3,2025-274F,2026-07-05T07:12:15.877728,14.88368680,.0006787,97.7440,113.9393,64.0265,296.1650,0,U,66655,999,3284,.19472E-3,.175E-4,0
CSG-3,2026-001A,2026-07-05T11:51:54.010368,14.82148233,.0001432,97.8892,9.8313,91.4874,268.6503,0,U,67304,999,2717,.80255E-4,.587E-5,0
PRSC-E03,2026-092A,2026-07-05T14:41:36.550176,15.06775089,.00038664,38.0023,341.0252,189.0498,171.0195,0,U,68835,999,1073,.23956952E-3,.3527E-4,0
CAS500-2,2026-100AK,2026-07-05T10:40:47.235360,15.20822145,.00085431,97.3878,83.9579,332.1140,27.9637,0,U,69013,999,958,.41838545E-3,.9174E-4,0
