IONOSFERA-M 2           
1 61736U 24199B   26186.58308929  .00000070  00000+0  50659-4 0  9990
2 61736  98.7148  59.4696 0000342  69.5972 290.5243 14.22761205133448
PRSC-EO1                
1 62725U 25012A   26186.65284045  .00007851  00000+0  39247-3 0  9997
2 62725  97.4214 258.7516 0006077 178.4112 181.7142 15.17698729 80994
BIOMASS                 
1 63772U 25090A   26186.44541354  .00001478  00000+0  26916-3 0  9990
2 63772  98.0745  13.4927 0001453  87.9282 272.2089 14.67535846 63362
GOSAT-GW (IBUKI GW)     
1 64694U 25141A   26186.59914272  .00001224  00000+0  22422-3 0  9997
2 64694  98.0567 123.6171 0001415  83.6241 276.5125 14.67552418 54541
IONOSFERA-M 3           
1 64876U 25155A   26186.61726340  .00000053  00000+0  43825-4 0  9994
2 64876  98.6034 148.0591 0001962 126.9262 233.2095 14.21489605 49026
IONOSFERA-M 4           
1 64877U 25155B   26186.65207367  .00000057  00000+0  45699-4 0  9997
2 64877  98.6040 148.0102 0001634 108.6760 251.4595 14.21492013 49022
MICROCARB               
1 64899U 25156A   26186.15637531  .00000778  00000+0  12905-3 0  9990
2 64899  98.0076 262.9993 0016836 203.0357 157.0098 14.72877977 50613
CO3D 3                  
1 64900U 25156B   26186.35472521  .00007331  00000+0  34142-3 0  9990
2 64900  97.4326 264.7864 0001845 104.7436 255.4004 15.20202387 52290
CO3D 4                  
1 64901U 25156C   26186.35487459  .00002104  00000+0  10031-3 0  9991
2 64901  97.4332 264.7865 0000910 171.6356 188.4895 15.20190723 52298
CO3D 2                  
1 64902U 25156D   26186.38735119  .00006816  00000+0  31755-3 0  9994
2 64902  97.4326 264.7177 0001432  92.8171 267.3228 15.20215305 52298
CO3D 1                  
1 64903U 25156E   26186.38750659  .00006785  00000+0  31631-3 0  9999
2 64903  97.4331 264.7187 0001312 100.0164 260.1219 15.20194743 52290
PRSC-S1                 
1 65055U 25164A   26186.49485735  .00003961  00000+0  27448-3 0  9993
2 65055  41.1290 184.6919 0005220 127.9724 232.1562 15.06586363 51199
SENTINEL-6B             
1 66514U 25264A   26186.12137287 -.00000032  00000+0  12398-3 0  9996
2 66514  66.0414  97.9303 0007903 268.8997  91.1113 12.80930111 29467
CAS500-3                
1 66655U 25274F   26186.30018378  .00001750  00000+0  19472-3 0  9999
2 66655  97.7440 113.9393 0006787  64.0265 296.1650 14.88368681 32840
CSG-3                   
1 67304U 26001A   26186.49437512  .00000587  00000+0  80255-4 0  9990
2 67304  97.8892   9.8313 0001431  91.4874 268.6503 14.82148233 27174
PRSC-E03                
1 68835U 26092A   26186.61222859  .00003527  00000+0  23957-3 0  9992
2 68835  38.0023 341.0252 0003866 189.0498 171.0195 15.06775089 10730
CAS500-2                
1 69013U 26100AK  26186.44499115  .00009174  00000+0  41839-3 0  9996
2 69013  97.3878  83.9579 0008543 332.1140  27.9637 15.20822145  9584
